COSMOS 1933             
1 18958U 88020A   25354.40372584  .00003387  00000+0  16907-3 0  9997
2 18958  82.5135 329.3053 0006214 107.8557 252.3354 15.17168505 38204
SL-3 R/B                
1 19046U 88032B   25354.43823204  .00003627  00000+0  17594-3 0  9992
2 19046  97.5084 333.1055 0027542 146.6609 213.6367 15.18812298 40071
SL-16 R/B               
1 19120U 88039B   25354.14567574  .00000186  00000+0  11065-3 0  9999
2 19120  71.0134 236.7395 0019585 103.5986 256.7322 14.19598030947092
COSMOS 1953             
1 19210U 88050A   25351.75027580  .00004793  00000+0  17925-3 0  9993
2 19210  82.5093 240.5536 0013540  56.0210 304.2313 15.26995692 25270
SL-8 R/B                
1 19257U 88053B   25354.20596156  .00000185  00000+0  68588-4 0  9993
2 19257  74.0473 258.9596 0018958 100.2541  52.7634 14.38863377965163
COSMOS 1975             
1 19573U 88093A   25354.51581189  .00005041  00000+0  19104-3 0  9997
2 19573  82.5190 197.0435 0013057  88.3713 271.9021 15.26573072  7329
SL-14 R/B               
1 19574U 88093B   25354.45554692  .00000392  00000+0  42401-4 0  9991
2 19574  82.5313 116.4267 0019423 302.5658 128.0156 14.85556742989270
SL-16 R/B               
1 19650U 88102B   25354.36965292  .00000267  00000+0  15917-3 0  9991
2 19650  71.0003 318.3886 0012636 138.7847 221.4233 14.16139584915663
INTERCOSMOS 24          
1 20261U 89080A   25354.45051969  .00000538  00000+0  14933-3 0  9992
2 20261  82.6051 155.9396 1188971 116.6405 256.1375 12.59452002656827
SL-14 R/B               
1 20262U 89080C   25354.10479671  .00000289  00000+0  82672-4 0  9998
2 20262  82.5921 224.2930 1230537   6.7590 354.8495 12.50419167650208
DELTA 1 R/B             
1 20323U 89089B   25354.50340159  .00000240  00000+0  68244-4 0  9993
2 20323  97.0746 209.5103 0069528  14.0395 346.2715 14.50577860884255
ARIANE 40 R/B           
1 20443U 90005H   25354.45309782  .00000211  00000+0  80572-4 0  9993
2 20443  98.3234  52.4128 0011283  84.9575 275.2902 14.39803874881404
